#dP2021  4  8  0  0  0.00000000      97 __u+U IGS14 FIT  IAC
## 2152 345600.00000000   900.00000000 59312 0.0000000000000
+  124   C01C02C03C04C05C06C07C08C09C10C11C12C13C14C16C19C20
+        C21C22C23C24C25C26C27C28C29C30C32C33C34C35C36C37C38
+        C39C40C41C42C43C44C45C46C60E01E02E03E04E05E07E08E09
+        E11E12E13E14E15E18E19E21E24E25E26E27E30E31E33E36G01
+        G02G03G04G05G06G07G08G09G10G11G12G13G14G15G16G17G18
+        G19G20G21G22G23G24G25G26G27G28G29G30G31G32J01J02J03
+        J07R01R02R03R04R05R07R08R09R11R12R13R14R15R16R17R18
+        R19R20R21R22R24  0  0  0  0  0  0  0  0  0  0  0  0
++        13 13 13 13 13  9  9  9  9  8  8  9  8  8  9  7  7
++         7  7  7  7  7  7  7  7  7  7  7  7  7  7  7  7  8
++         8  8  8  8  7  7  7  8 13  4  4  4  4  4  4  4  4
++         4  4  5  4  4  5  4  4  4  4  4  4  4  4  4  4  3
++         3  3  3  3  3  3  3  3  3  4  3  4  3  3  3  3  3
++         3  3  4  3  3  4  3  3  3  4  3  3  3  3  8  8  8
++        13  7  5  5  5  5  5  5  6  7  5  7  5  5  7  5  5
++         7  7  6  7  5  0  0  0  0  0  0  0  0  0  0  0  0
%c M  cc GPS ccc cccc cccc cccc cccc ccccc ccccc ccccc ccccc
%c cc cc ccc ccc cccc cccc cccc cccc ccccc ccccc ccccc ccccc
%f  1.2500000  1.025000000  0.00000000000  0.000000000000000
%f  0.0000000  0.000000000  0.00000000000  0.000000000000000
%i    0    0    0    0      0      0      0      0         0
%i    0    0    0    0      0      0      0      0         0
/* INFORMATION & ANALYSIS CENTER (IAC)            FINAL DATA
/* S/V CLOCKS ARE ALIGNED TO GNSS TIME                      
/* G:C1WC2W R:C1PC2P E:C1XC5X C:C2IC6I J:C1CC2S             
/* PCV:IGS14_2148 OL/AL:FES2004  NONE     YN ORB:CoN CLK:CoN
*  2021 04 08  3 30  0.00000000
PC01 -34369.163637  24462.625264    242.323474   -581.010013
PC02   4437.388206  41879.449160  -1216.273790    776.954800
PC03 -14700.123768  39497.453988  -1034.742208   -421.286327
PC04 -39591.019168  14527.425302     82.404658    612.682287
PC05  21964.743815  35968.565717   -894.520864     64.821521
PC06 -17660.895899  37736.751519  -3904.178834    256.009577
PC07  -9912.503312  26558.093392  31573.402912    -98.098502
PC08 -24232.705664  20875.984332 -27559.930012   -893.622258
PC09  -8702.892515  39577.021813  11076.624084    611.507802
PC10   4469.720576  33742.249062  25356.539687    -59.740150
PC11   -388.550117  22684.118377 -16211.678055   -822.165884
PC12 -13282.039174  24550.107639    126.441091    926.759874
PC13  -8797.368826  23752.014840 -33648.687384    212.717615
PC14  10378.078370  25006.687989  -6852.938900    412.035641
PC16 -15237.379311  39170.496933   -744.366338   -772.599757
PC19 -16431.133118 -22405.867293  -2457.619763    790.721156
PC20  -3857.065418 -23861.477054  13941.521461   -948.773101
PC21 -11629.958312  11118.612664 -22778.533481   -929.334412
PC22 -19825.508066  -7881.204194 -17963.847426   -953.015455
PC23  27600.423249   1693.292292   3747.291203   -885.122075
PC24  -4682.079660  16117.523336  22285.788650   -806.823641
PC25  17313.531770  12001.855625  18284.140322   -935.940170
PC26 -21720.560170  11051.861177  13616.690568    924.118753
PC27  17740.629004 -19557.984984  -9082.398647    511.814114
PC28  17848.220173  -1997.656574 -21357.322951    -88.886340
PC29  -8148.587065 -16389.431268  21059.014046    375.846495
PC30   6622.267331 -25908.073635   8021.633384    458.585433
PC32  11600.253177 -11189.125673  22801.295004   -933.758142
PC33  16560.465528  22342.163659   2441.387469   -942.261813
PC34  -6113.606763  25793.497435  -8684.861781   -700.875416
PC35 -17719.476328   2202.931822  21429.846545   -337.334508
PC36 -16725.017426 -12537.637895 -18469.225892   -733.425718
PC37  22545.748757 -10104.952427 -12943.504358   -891.488735
PC38 -19592.824920  23820.700949 -28778.954850    140.881737
PC39 -11345.958796  40526.505977   1004.479932     30.114840
PC40   1855.401025  31186.574530  28392.034549    148.960854
PC41  19949.938005   8064.096811  17819.857887   -940.744042
PC42   3337.953693  23660.085851 -14379.710474   -927.721049
PC43   7835.371051  16858.164113 -20811.006581   -675.607149
PC44 -17158.366798  19959.992133   9204.308500    126.535381
PC45 -27631.159739  -1553.479570  -3674.951204    407.990351
PC46   3501.784935 -16077.088607 -22533.759355    326.304852
PC60   7318.894204  41525.239437   -177.514891      0.787932
PE01  18300.900805  -7798.488046 -21919.649874  -1082.363701
PE02 -18225.863747   7862.063844  21958.456385    210.629186
PE03 -12557.413770  17823.560446 -20022.536244   -417.706918
PE04    699.882470 -29194.378454   4844.949089   -745.575481
PE05 -17235.141799  -4208.424150 -23687.723876   -290.597820
PE07  11821.513685  23543.372499  13515.675752   -522.853956
PE08   -292.692142  29253.108385  -4546.992704   6020.978328
PE09 -11928.420251 -23365.707824 -13687.424846   5708.201621
PE11 -10835.192971 -12123.011149  24728.349823   6118.870506
PE12   9408.821386 -21433.700915  18134.800147   5270.608703
PE13  10459.385777  12307.912621 -24799.284865    414.707692
PE14  -2667.067970 -22952.254630   7862.533130  -1389.383531
PE15  -9318.909740  21399.926844 -18188.618357    820.580358
PE18  11411.553032  23413.579848 -18833.712569  -1519.849360
PE19  13456.896926 -15620.550394  21249.226079    246.787187
PE21  27648.347218   6526.357030  -8310.909957   -658.096295
PE24 -20662.083905 -17998.178256 -11243.995290   -835.436008
PE25 -27673.722810  -6675.129800   8125.877864   -530.449962
PE26  24399.827451  -4451.985630 -16154.651063   1949.890725
PE27  21278.282632  17626.197837  10599.546085     -6.538457
PE30   1369.198825  18086.094350  23375.028500   3042.666328
PE31  -2457.909264 -18289.527455 -23142.300042   -479.946366
PE33  23576.915138 -17888.502564    896.862754   -467.323259
PE36 -24033.716072   3998.721404  16804.752407   -190.738925
PG01  -3267.006000  16447.534013 -20756.925405    721.868360
PG02  21848.041017 -14779.221998   3942.201553   -593.658456
PG03   7172.359462  19469.664758 -16722.764178   -130.657562
PG04  -1017.706852  26238.276959   3805.354461   -190.666322
PG05   9986.667815 -11636.323387  21545.681670    -38.462133
PG06  24786.116218  -5006.985160  -8166.063461      5.682014
PG07  12053.079780  11261.299745  21243.486541    115.306258
PG08  -5702.344710  25289.279606   4962.544579    -16.699451
PG09   7442.687139  21769.285438  13194.276090   -337.294325
PG10 -23309.110851 -10677.619190  -7332.146798    -97.498567
PG11  -4150.227083  22651.543516 -13995.606023     23.477722
PG12  -2864.322573 -19012.060656 -18644.648338    -24.856242
PG13  13056.918485 -19809.417406  11673.871635    117.289244
PG14  22687.827677  12074.170882  -6759.319158     97.463389
PG15   2855.835265 -25832.378248   4094.981775   -157.680416
PG16 -13697.754536   7297.915054  21370.668830   -306.290587
PG17  13539.714163   6200.487951 -21565.987164    422.838136
PG18 -15109.797234  -8667.768744  20060.540977    351.583054
PG19  15471.795599  -3105.358270 -21631.854002    -15.831361
PG20 -14689.873928 -18286.105287  12664.694438    523.399276
PG21 -11098.021294  17974.372331 -15087.036697    109.338163
PG22  -1814.404824  16554.294221 -20525.213439   -642.908602
PG23 -20335.010957 -16804.513053   3271.021235    114.612138
PG24   7877.361937 -18589.719094 -17302.486427      0.051721
PG25 -15586.756982 -19583.216568  -9552.503886    114.365164
PG26 -20701.145303    810.870239  16712.919218     69.162365
PG27 -12121.143582  17886.456959  15021.464657   -108.749883
PG28  21953.430345  11619.764859  -8573.740110    590.106660
PG29  -5585.346212 -21746.464453  14109.784468   -326.135778
PG30  22370.492872   2204.736461  14378.180720   -409.788661
PG31 -25483.014732   6407.812304  -5400.637522   -110.307337
PG32 -14894.292010  -3698.511942 -21580.190594     22.048497
PJ01 -19955.629440  23744.982875 -23997.197443   -363.173196
PJ02 -28367.324231  21363.351530  27629.184334      4.995578
PJ03 -32138.646970  25906.994354  13621.713759     -3.000239
PJ07 -25402.982664  33640.930463    -33.878843     -0.008675
PR01   9570.569873  -5759.506913  22938.352668     77.565835
PR02  -2385.594774 -22154.925965  12515.247030    473.943624
PR03 -11352.462537 -22391.955243  -4618.479630     33.822545
PR04 -13633.822996 -10074.640536 -19030.628303     81.427269
PR05  -8384.590257   7816.227097 -22769.727136     69.587556
PR07  11595.808097  22049.846050   5417.060556    -42.548484
PR08  13751.120214   9898.116268  19120.167318    -58.413341
PR09  -2953.355890  10964.615175  22851.235167    -13.147066
PR11  25083.471446   4156.817309   2123.608538      1.327139
PR12  20048.082225  -4488.541743 -15082.629173    219.072751
PR13   3635.062680 -10583.482832 -22942.494207    -53.117744
PR14 -15576.767643 -10527.947593 -17226.441648     62.902093
PR15 -25086.500940  -4322.310280  -1640.352656    104.499683
PR16 -19383.931761   5462.170733  15711.683854    -13.516451
PR17  -2235.595884 -13103.172344  21771.776947    414.460832
PR18 -13567.446898   1480.846102  21548.899103     72.467300
PR19 -18225.196286  14398.687368  10539.730937   -138.907795
PR20 -11877.434776  20508.822901  -9360.208004    -46.874347
PR21   3021.701603  12222.436875 -22188.135687   -200.171012
PR22  14180.349096  -2573.170756 -21089.466675   -106.695145
PR24  10979.864982 -20761.157426   9963.660858     38.013880
EOF
